[ {"spaceTrack": {"CCSDS_OMM_VERS": "2.0", "COMMENT": "GENERATED VIA SPACE-TRACK.ORG API", "CREATION_DATE": "2020-08-23 22:46:10", "ORIGINATOR": "18 SPCS", "OBJECT_NAME": "STARLINK-1402", "OBJECT_ID": "2020-035AE", "CENTER_NAME": "EARTH", "REF_FRAME": "TEME", "TIME_SYSTEM": "UTC", "MEAN_ELEMENT_THEORY": "SGP4", "EPOCH": "2020-08-23 22:00:00.999936", "MEAN_MOTION": 15.05598385, "ECCENTRICITY": 0.0001476, "INCLINATION": 52.9992, "RA_OF_ASC_NODE": 141.6774, "ARG_OF_PERICENTER": 76.1232, "MEAN_ANOMALY": 108.528, "EPHEMERIS_TYPE": 0, "CLASSIFICATION_TYPE": "U", "NORAD_CAT_ID": 45685, "ELEMENT_SET_NO": 999, "REV_AT_EPOCH": 1345, "BSTAR": -0.0019878, "MEAN_MOTION_DOT": -0.00029137, "MEAN_MOTION_DDOT": 0, "SEMIMAJOR_AXIS": 6927.806, "PERIOD": 95.643, "APOAPSIS": 550.694, "PERIAPSIS": 548.648, "OBJECT_TYPE": "PAYLOAD", "RCS_SIZE": "LARGE", "COUNTRY_CODE": "US", "LAUNCH_DATE": "2020-06-04", "SITE": "AFETR", "DECAY_DATE": null, "DECAYED": 0, "FILE": 2807308, "GP_ID": 159987010, "TLE_LINE0": "0 STARLINK-1402", "TLE_LINE1": "1 45685U 20035AE  20236.91667824 -.00029137  00000-0 -19878-2 0  9993", "TLE_LINE2": "2 45685  52.9992 141.6774 0001476  76.1232 108.5280 15.05598385 13451"}, "version": "v1.0", "launch": "5eb87d45ffd86e000604b387", "longitude": -3.064449549605571, "latitude": -2.7834327037396185, "height_km": 551.254756696846, "velocity_kms": 7.587051184312014, "id": "5eed7716096e5900069857cd"}, {"spaceTrack": {"CCSDS_OMM_VERS": "2.0", "COMMENT": "GENERATED VIA SPACE-TRACK.ORG API", "CREATION_DATE": "2020-08-23 14:56:10", "ORIGINATOR": "18 SPCS", "OBJECT_NAME": "STARLINK-1394", "OBJECT_ID": "2020-035Y", "CENTER_NAME": "EARTH", "REF_FRAME": "TEME", "TIME_SYSTEM": "UTC", "MEAN_ELEMENT_THEORY": "SGP4", "EPOCH": "2020-08-23 14:00:01.999872", "MEAN_MOTION": 15.05561809, "ECCENTRICITY": 0.0001422, "INCLINATION": 52.9993, "RA_OF_ASC_NODE": 143.1765, "ARG_OF_PERICENTER": 81.004, "MEAN_ANOMALY": 275.8695, "EPHEMERIS_TYPE": 0, "CLASSIFICATION_TYPE": "U", "NORAD_CAT_ID": 45679, "ELEMENT_SET_NO": 999, "REV_AT_EPOCH": 1340, "BSTAR": 0.0057299, "MEAN_MOTION_DOT": 0.00084166, "MEAN_MOTION_DDOT": 0, "SEMIMAJOR_AXIS": 6927.918, "PERIOD": 95.645, "APOAPSIS": 550.768, "PERIAPSIS": 548.798, "OBJECT_TYPE": "PAYLOAD", "RCS_SIZE": "LARGE", "COUNTRY_CODE": "US", "LAUNCH_DATE": "2020-06-04", "SITE": "AFETR", "DECAY_DATE": null, "DECAYED": 0, "FILE": 2807104, "GP_ID": 159941511, "TLE_LINE0": "0 STARLINK-1394", "TLE_LINE1": "1 45679U 20035Y   20236.58335648  .00084166  00000-0  57299-2 0  9995", "TLE_LINE2": "2 45679  52.9993 143.1765 0001422  81.0040 275.8695 15.05561809 13409"}, "version": "v1.0", "launch": "5eb87d45ffd86e000604b387", "longitude": 176.67248883972522, "latitude": 2.421244683170417, "height_km": 549.9805115487698, "velocity_kms": 7.588382246675733, "id": "5eed7716096e5900069857ce"}, {"spaceTrack": {"CCSDS_OMM_VERS": "2.0", "COMMENT": "GENERATED VIA SPACE-TRACK.ORG API", "CREATION_DATE": "2020-08-23 22:46:10", "ORIGINATOR": "18 SPCS", "OBJECT_NAME": "STARLINK-1401", "OBJECT_ID": "2020-035AD", "CENTER_NAME": "EARTH", "REF_FRAME": "TEME", "TIME_SYSTEM": "UTC", "MEAN_ELEMENT_THEORY": "SGP4", "EPOCH": "2020-08-23 22:00:00.999936", "MEAN_MOTION": 15.05609049, "ECCENTRICITY": 0.0001912, "INCLINATION": 53.0015, "RA_OF_ASC_NODE": 141.6798, "ARG_OF_PERICENTER": 77.3694, "MEAN_ANOMALY": 89.2535, "EPHEMERIS_TYPE": 0, "CLASSIFICATION_TYPE": "U", "NORAD_CAT_ID": 45684, "ELEMENT_SET_NO": 999, "REV_AT_EPOCH": 1345, "BSTAR": -0.0020465, "MEAN_MOTION_DOT": -0.00029995, "MEAN_MOTION_DDOT": 0, "SEMIMAJOR_AXIS": 6927.773, "PERIOD": 95.642, "APOAPSIS": 550.963, "PERIAPSIS": 548.314, "OBJECT_TYPE": "PAYLOAD", "RCS_SIZE": "LARGE", "COUNTRY_CODE": "US", "LAUNCH_DATE": "2020-06-04", "SITE": "AFETR", "DECAY_DATE": null, "DECAYED": 0, "FILE": 2807307, "GP_ID": 159987000, "TLE_LINE0": "0 STARLINK-1401", "TLE_LINE1": "1 45684U 20035AD  20236.91667824 -.00029995  00000-0 -20465-2 0  9998", "TLE_LINE2": "2 45684  53.0015 141.6798 0001912  77.3694  89.2535 15.05609049 13452"}, "version": "v1.0", "launch": "5eb87d45ffd86e000604b387", "longitude": -14.089907785615837, "latitude": 11.722939825361207, "height_km": 549.706831217336, "velocity_kms": 7.589232800656335, "id": "5eed7716096e5900069857cf"}, {"spaceTrack": {"CCSDS_OMM_VERS": "2.0", "COMMENT": "GENERATED VIA SPACE-TRACK.ORG API", "CREATION_DATE": "2020-08-23 22:46:10", "ORIGINATOR": "18 SPCS", "OBJECT_NAME": "STARLINK-1396", "OBJECT_ID": "2020-035AA", "CENTER_NAME": "EARTH", "REF_FRAME": "TEME", "TIME_SYSTEM": "UTC", "MEAN_ELEMENT_THEORY": "SGP4", "EPOCH": "2020-08-23 22:00:00.999936", "MEAN_MOTION": 15.05580135, "ECCENTRICITY": 0.0001543, "INCLINATION": 52.9976, "RA_OF_ASC_NODE": 141.6872, "ARG_OF_PERICENTER": 348.91, "MEAN_ANOMALY": 357.733, "EPHEMERIS_TYPE": 0, "CLASSIFICATION_TYPE": "U", "NORAD_CAT_ID": 45681, "ELEMENT_SET_NO": 999, "REV_AT_EPOCH": 1344, "BSTAR": -0.002128, "MEAN_MOTION_DOT": -0.00031149, "MEAN_MOTION_DDOT": 0, "SEMIMAJOR_AXIS": 6927.862, "PERIOD": 95.644, "APOAPSIS": 550.796, "PERIAPSIS": 548.658, "OBJECT_TYPE": "PAYLOAD", "RCS_SIZE": "LARGE", "COUNTRY_CODE": "US", "LAUNCH_DATE": "2020-06-04", "SITE": "AFETR", "DECAY_DATE": null, "DECAYED": 0, "FILE": 2807305, "GP_ID": 159987489, "TLE_LINE0": "0 STARLINK-1396", "TLE_LINE1": "1 45681U 20035AA  20236.91667824 -.00031149  00000-0 -21280-2 0  9995", "TLE_LINE2": "2 45681  52.9976 141.6872 0001543 348.9100 357.7330 15.05580135 13444"}, "version": "v1.0", "launch": "5eb87d45ffd86e000604b387", "longitude": 165.83214331275735, "latitude": -11.822811171142286, "height_km": 551.8211995087031, "velocity_kms": 7.5869732972250485, "id": "5eed7716096e5900069857d0"}, {"spaceTrack": {"CCSDS_OMM_VERS": "2.0", "COMMENT": "GENERATED VIA SPACE-TRACK.ORG API", "CREATION_DATE": "2020-08-23 14:56:10", "ORIGINATOR": "18 SPCS", "OBJECT_NAME": "STARLINK-1441", "OBJECT_ID": "2020-035B", "CENTER_NAME": "EARTH", "REF_FRAME": "TEME", "TIME_SYSTEM": "UTC", "MEAN_ELEMENT_THEORY": "SGP4", "EPOCH": "2020-08-23 14:00:01.999872", "MEAN_MOTION": 15.05548472, "ECCENTRICITY": 0.0001782, "INCLINATION": 52.9996, "RA_OF_ASC_NODE": 153.1814, "ARG_OF_PERICENTER": 78.5855, "MEAN_ANOMALY": 88.3435, "EPHEMERIS_TYPE": 0, "CLASSIFICATION_TYPE": "U", "NORAD_CAT_ID": 45658, "ELEMENT_SET_NO": 999, "REV_AT_EPOCH": 1326, "BSTAR": 0.004921, "MEAN_MOTION_DOT": 0.00072095, "MEAN_MOTION_DDOT": 0, "SEMIMAJOR_AXIS": 6927.959, "PERIOD": 95.646, "APOAPSIS": 551.059, "PERIAPSIS": 548.59, "OBJECT_TYPE": "PAYLOAD", "RCS_SIZE": "LARGE", "COUNTRY_CODE": "US", "LAUNCH_DATE": "2020-06-04", "SITE": "AFETR", "DECAY_DATE": null, "DECAYED": 0, "FILE": 2807110, "GP_ID": 159941149, "TLE_LINE0": "0 STARLINK-1441", "TLE_LINE1": "1 45658U 20035B   20236.58335648  .00072095  00000-0  49210-2 0  9994", "TLE_LINE2": "2 45658  52.9996 153.1814 0001782  78.5855  88.3435 15.05548472 13263"}, "version": "v1.0", "launch": "5eb87d45ffd86e000604b387", "longitude": 0.8467237903027435, "latitude": 5.329554385310378, "height_km": 550.0609116102332, "velocity_kms": 7.588421131912288, "id": "5eed7716096e5900069857d1"}, {"spaceTrack": {"CCSDS_OMM_VERS": "2.0", "COMMENT": "GENERATED VIA SPACE-TRACK.ORG API", "CREATION_DATE": "2020-08-23 22:46:10", "ORIGINATOR": "18 SPCS", "OBJECT_NAME": "STARLINK-1393", "OBJECT_ID": "2020-035X", "CENTER_NAME": "EARTH", "REF_FRAME": "TEME", "TIME_SYSTEM": "UTC", "MEAN_ELEMENT_THEORY": "SGP4", "EPOCH": "2020-08-23 22:00:00.999936", "MEAN_MOTION": 15.05606563, "ECCENTRICITY": 0.0001514, "INCLINATION": 53.001, "RA_OF_ASC_NODE": 141.6782, "ARG_OF_PERICENTER": 68.7234, "MEAN_ANOMALY": 313.8757, "EPHEMERIS_TYPE": 0, "CLASSIFICATION_TYPE": "U", "NORAD_CAT_ID": 45678, "ELEMENT_SET_NO": 999, "REV_AT_EPOCH": 1344, "BSTAR": -0.0022501, "MEAN_MOTION_DOT": -0.00032935, "MEAN_MOTION_DDOT": 0, "SEMIMAJOR_AXIS": 6927.781, "PERIOD": 95.642, "APOAPSIS": 550.695, "PERIAPSIS": 548.597, "OBJECT_TYPE": "PAYLOAD", "RCS_SIZE": "LARGE", "COUNTRY_CODE": "US", "LAUNCH_DATE": "2020-06-04", "SITE": "AFETR", "DECAY_DATE": null, "DECAYED": 0, "FILE": 2807304, "GP_ID": 159986975, "TLE_LINE0": "0 STARLINK-1393", "TLE_LINE1": "1 45678U 20035X   20236.91667824 -.00032935  00000-0 -22501-2 0  9992", "TLE_LINE2": "2 45678  53.0010 141.6782 0001514  68.7234 313.8757 15.05606563 13444"}, "version": "v1.0", "launch": "5eb87d45ffd86e000604b387", "longitude": -172.0227266421646, "latitude": 16.860303810286776, "height_km": 549.1937237572229, "velocity_kms": 7.590353850172299, "id": "5eed7716096e5900069857d2"}, {"spaceTrack": {"CCSDS_OMM_VERS": "2.0", "COMMENT": "GENERATED VIA SPACE-TRACK.ORG API", "CREATION_DATE": "2020-08-23 22:16:09", "ORIGINATOR": "18 SPCS", "OBJECT_NAME": "STARLINK-1347", "OBJECT_ID": "2020-025BH", "CENTER_NAME": "EARTH", "REF_FRAME": "TEME", "TIME_SYSTEM": "UTC", "MEAN_ELEMENT_THEORY": "SGP4", "EPOCH": "2020-08-23 20:00:01.000224", "MEAN_MOTION": 15.13279976, "ECCENTRICITY": 0.0001532, "INCLINATION": 53.0031, "RA_OF_ASC_NODE": 160.7534, "ARG_OF_PERICENTER": 64.568, "MEAN_ANOMALY": 84.5361, "EPHEMERIS_TYPE": 0, "CLASSIFICATION_TYPE": "U", "NORAD_CAT_ID": 45586, "ELEMENT_SET_NO": 999, "REV_AT_EPOCH": 1990, "BSTAR": -0.063458, "MEAN_MOTION_DOT": -0.01059009, "MEAN_MOTION_DDOT": 0, "SEMIMAJOR_AXIS": 6904.342, "PERIOD": 95.157, "APOAPSIS": 527.265, "PERIAPSIS": 525.149, "OBJECT_TYPE": "PAYLOAD", "RCS_SIZE": "LARGE", "COUNTRY_CODE": "US", "LAUNCH_DATE": "2020-04-22", "SITE": "AFETR", "DECAY_DATE": null, "DECAYED": 0, "FILE": 2807203, "GP_ID": 159984719, "TLE_LINE0": "0 STARLINK-1347", "TLE_LINE1": "1 45586U 20025BH  20236.83334491 -.01059009  00000-0 -63458-1 0  9998", "TLE_LINE2": "2 45586  53.0031 160.7534 0001532  64.5680  84.5361 15.13279976 19904"}, "version": "v1.0", "launch": "5eb87d44ffd86e000604b386", "longitude": 64.17373009462631, "latitude": -45.89039197120789, "height_km": 543.8041075644032, "velocity_kms": 7.589553968842971, "id": "5eed7716096e5900069857d3"}]